{
  "type": "FeatureCollection",
  "features": [
    {
      "type": "Feature",
      "properties": {
        "norad_id": 66575,
        "name": "STARLINK-35810",
        "group": "last-30-days",
        "lat": -35.34563394937781,
        "lon": -77.69786041347763,
        "alt_km": 427.1465700030567,
        "timestamp": "2025-12-24T09:46:29.713328+00:00",
        "meta_object_name": "STARLINK-35810",
        "meta_object_id": "2025-268U",
        "meta_epoch": "2025-12-24T04:00:01.998720",
        "meta_mean_motion": 15.4830676,
        "meta_eccentricity": 0.0001229,
        "meta_inclination": 43.0003,
        "meta_ra_of_asc_node": 54.1428,
        "meta_arg_of_pericenter": 264.5071,
        "meta_mean_anomaly": 71.2999,
        "meta_ephemeris_type": 0,
        "meta_classification_type": "U",
        "meta_norad_cat_id": 66575,
        "meta_element_set_no": 999,
        "meta_rev_at_epoch": 607,
        "meta_bstar": -0.042168,
        "meta_mean_motion_dot": -0.02033774,
        "meta_mean_motion_ddot": 0,
        "tle_line1": "1 66575U 25268U   25358.16668980 -.02033774  00000+0 -42168-1 0  9998",
        "tle_line2": "2 66575  43.0003  54.1428 0001229 264.5071  71.2999 15.48306760  6074"
      },
      "geometry": {
        "type": "Point",
        "coordinates": [
          -77.69786041347763,
          -35.34563394937781
        ]
      }
    },
    {
      "type": "Feature",
      "properties": {
        "norad_id": 66576,
        "name": "STARLINK-35814",
        "group": "last-30-days",
        "lat": -38.463113263796814,
        "lon": -68.79600768585424,
        "alt_km": 424.77314522739016,
        "timestamp": "2025-12-24T09:46:29.713338+00:00",
        "meta_object_name": "STARLINK-35814",
        "meta_object_id": "2025-268V",
        "meta_epoch": "2025-12-24T04:00:01.998720",
        "meta_mean_motion": 15.4914378,
        "meta_eccentricity": 0.0001274,
        "meta_inclination": 43.0002,
        "meta_ra_of_asc_node": 54.1254,
        "meta_arg_of_pericenter": 265.0134,
        "meta_mean_anomaly": 77.8568,
        "meta_ephemeris_type": 0,
        "meta_classification_type": "U",
        "meta_norad_cat_id": 66576,
        "meta_element_set_no": 999,
        "meta_rev_at_epoch": 608,
        "meta_bstar": -0.041003,
        "meta_mean_motion_dot": -0.02036815,
        "meta_mean_motion_ddot": 0,
        "tle_line1": "1 66576U 25268V   25358.16668980 -.02036815  00000+0 -41003-1 0  9995",
        "tle_line2": "2 66576  43.0002  54.1254 0001274 265.0134  77.8568 15.49143780  6084"
      },
      "geometry": {
        "type": "Point",
        "coordinates": [
          -68.79600768585424,
          -38.463113263796814
        ]
      }
    },
    {
      "type": "Feature",
      "properties": {
        "norad_id": 66577,
        "name": "STARLINK-35815",
        "group": "last-30-days",
        "lat": -41.54059581835351,
        "lon": -55.356898954998385,
        "alt_km": 420.65075092375173,
        "timestamp": "2025-12-24T09:46:29.713349+00:00",
        "meta_object_name": "STARLINK-35815",
        "meta_object_id": "2025-268W",
        "meta_epoch": "2025-12-24T04:00:01.998720",
        "meta_mean_motion": 15.50601425,
        "meta_eccentricity": 0.0001204,
        "meta_inclination": 43.0004,
        "meta_ra_of_asc_node": 54.1021,
        "meta_arg_of_pericenter": 264.0399,
        "meta_mean_anomaly": 88.3304,
        "meta_ephemeris_type": 0,
        "meta_classification_type": "U",
        "meta_norad_cat_id": 66577,
        "meta_element_set_no": 999,
        "meta_rev_at_epoch": 607,
        "meta_bstar": -0.039143,
        "meta_mean_motion_dot": -0.02047138,
        "meta_mean_motion_ddot": 0,
        "tle_line1": "1 66577U 25268W   25358.16668980 -.02047138  00000+0 -39143-1 0  9998",
        "tle_line2": "2 66577  43.0004  54.1021 0001204 264.0399  88.3304 15.50601425  6075"
      },
      "geometry": {
        "type": "Point",
        "coordinates": [
          -55.356898954998385,
          -41.54059581835351
        ]
      }
    },
    {
      "type": "Feature",
      "properties": {
        "norad_id": 66578,
        "name": "STARLINK-35743",
        "group": "last-30-days",
        "lat": -42.564339472761645,
        "lon": -47.07110593776486,
        "alt_km": 418.243928122989,
        "timestamp": "2025-12-24T09:46:29.713359+00:00",
        "meta_object_name": "STARLINK-35743",
        "meta_object_id": "2025-268X",
        "meta_epoch": "2025-12-24T04:00:01.998720",
        "meta_mean_motion": 15.51437031,
        "meta_eccentricity": 0.0001189,
        "meta_inclination": 43.0004,
        "meta_ra_of_asc_node": 54.0881,
        "meta_arg_of_pericenter": 264.2508,
        "meta_mean_anomaly": 93.6471,
        "meta_ephemeris_type": 0,
        "meta_classification_type": "U",
        "meta_norad_cat_id": 66578,
        "meta_element_set_no": 999,
        "meta_rev_at_epoch": 608,
        "meta_bstar": -0.037935,
        "meta_mean_motion_dot": -0.02044914,
        "meta_mean_motion_ddot": 0,
        "tle_line1": "1 66578U 25268X   25358.16668980 -.02044914  00000+0 -37935-1 0  9995",
        "tle_line2": "2 66578  43.0004  54.0881 0001189 264.2508  93.6471 15.51437031  6081"
      },
      "geometry": {
        "type": "Point",
        "coordinates": [
          -47.07110593776486,
          -42.564339472761645
        ]
      }
    },
    {
      "type": "Feature",
      "properties": {
        "norad_id": 66579,
        "name": "STARLINK-35868",
        "group": "last-30-days",
        "lat": -42.96132160739876,
        "lon": -39.35734061519196,
        "alt_km": 415.785169344671,
        "timestamp": "2025-12-24T09:46:29.713370+00:00",
        "meta_object_name": "STARLINK-35868",
        "meta_object_id": "2025-268Y",
        "meta_epoch": "2025-12-24T04:00:01.998720",
        "meta_mean_motion": 15.52273434,
        "meta_eccentricity": 0.0001227,
        "meta_inclination": 42.9996,
        "meta_ra_of_asc_node": 54.0762,
        "meta_arg_of_pericenter": 265.3641,
        "meta_mean_anomaly": 97.4996,
        "meta_ephemeris_type": 0,
        "meta_classification_type": "U",
        "meta_norad_cat_id": 66579,
        "meta_element_set_no": 999,
        "meta_rev_at_epoch": 608,
        "meta_bstar": -0.036762,
        "meta_mean_motion_dot": -0.02043018,
        "meta_mean_motion_ddot": 0,
        "tle_line1": "1 66579U 25268Y   25358.16668980 -.02043018  00000+0 -36762-1 0  9997",
        "tle_line2": "2 66579  42.9996  54.0762 0001227 265.3641  97.4996 15.52273434  6081"
      },
      "geometry": {
        "type": "Point",
        "coordinates": [
          -39.35734061519196,
          -42.96132160739876
        ]
      }
    },
    {
      "type": "Feature",
      "properties": {
        "norad_id": 66580,
        "name": "STARLINK-35872",
        "group": "last-30-days",
        "lat": -42.87174524000015,
        "lon": -32.36597521055267,
        "alt_km": 413.1959231108722,
        "timestamp": "2025-12-24T09:46:29.713380+00:00",
        "meta_object_name": "STARLINK-35872",
        "meta_object_id": "2025-268Z",
        "meta_epoch": "2025-12-24T04:00:01.998720",
        "meta_mean_motion": 15.53119144,
        "meta_eccentricity": 0.0001458,
        "meta_inclination": 43.0003,
        "meta_ra_of_asc_node": 54.0654,
        "meta_arg_of_pericenter": 262.9149,
        "meta_mean_anomaly": 104.3522,
        "meta_ephemeris_type": 0,
        "meta_classification_type": "U",
        "meta_norad_cat_id": 66580,
        "meta_element_set_no": 999,
        "meta_rev_at_epoch": 613,
        "meta_bstar": -0.03594,
        "meta_mean_motion_dot": -0.02058291,
        "meta_mean_motion_ddot": 0,
        "tle_line1": "1 66580U 25268Z   25358.16668980 -.02058291  00000+0 -35940-1 0  9995",
        "tle_line2": "2 66580  43.0003  54.0654 0001458 262.9149 104.3522 15.53119144  6133"
      },
      "geometry": {
        "type": "Point",
        "coordinates": [
          -32.36597521055267,
          -42.87174524000015
        ]
      }
    },
    {
      "type": "Feature",
      "properties": {
        "norad_id": 66581,
        "name": "STARLINK-35744",
        "group": "last-30-days",
        "lat": -42.435371968205,
        "lon": -26.200573121259403,
        "alt_km": 410.6767996788494,
        "timestamp": "2025-12-24T09:46:29.713393+00:00",
        "meta_object_name": "STARLINK-35744",
        "meta_object_id": "2025-268AA",
        "meta_epoch": "2025-12-24T04:00:01.998720",
        "meta_mean_motion": 15.53953615,
        "meta_eccentricity": 0.0001528,
        "meta_inclination": 43.0008,
        "meta_ra_of_asc_node": 54.0551,
        "meta_arg_of_pericenter": 270.184,
        "meta_mean_anomaly": 100.9283,
        "meta_ephemeris_type": 0,
        "meta_classification_type": "U",
        "meta_norad_cat_id": 66581,
        "meta_element_set_no": 999,
        "meta_rev_at_epoch": 613,
        "meta_bstar": -0.03475,
        "meta_mean_motion_dot": -0.02052827,
        "meta_mean_motion_ddot": 0,
        "tle_line1": "1 66581U 25268AA  25358.16668980 -.02052827  00000+0 -34750-1 0  9993",
        "tle_line2": "2 66581  43.0008  54.0551 0001528 270.1840 100.9283 15.53953615  6137"
      },
      "geometry": {
        "type": "Point",
        "coordinates": [
          -26.200573121259403,
          -42.435371968205
        ]
      }
    }
  ]
}